OPS 6582 (TRANSIT 5B-5) 
1 00965U 64083D   21123.61213563  .00000017  00000-0  10863-4 0  9997
2 00965  90.0244 194.3230 0040274 350.0340 172.1189 13.56754976790058
OSCAR 7 (AO-7)          
1 07530U 74089B   21123.42331558 -.00000023  00000-0  13794-3 0  9996
2 07530 101.8509  97.9798 0012566 107.8459  46.9070 12.53648499126088
UOSAT 2 (UO-11)         
1 14781U 84021B   21123.46620748  .00000147  00000-0  24093-4 0  9996
2 14781  97.5931 125.5236 0007322 221.6887 138.3771 14.83278739979264
NOAA 9                  
1 15427U 84123A   21123.53249539  .00000028  00000-0  37059-4 0  9994
2 15427  98.9899  85.8640 0013846 247.0791 221.4085 14.16130713878592
LUSAT (LO-19)           
1 20442U 90005G   21123.59023794  .00000012  00000-0  21033-4 0  9990
2 20442  98.7376  78.6576 0010736 295.9528  64.0549 14.32984730634406
ITAMSAT (IO-26)         
1 22826U 93061D   21123.51259838  .00000003  00000-0  18949-4 0  9997
2 22826  98.9146 139.9327 0009553 147.2398 212.9378 14.30451687439804
RADIO ROSTO (RS-15)     
1 23439U 94085A   21123.55974383 -.00000037  00000-0  15882-3 0  9998
2 23439  64.8124  88.5644 0159947 343.2018  16.3646 11.27570957 85271
JAS-2 (FO-29)           
1 24278U 96046B   21123.19522963 -.00000008  00000-0  31144-4 0  9990
2 24278  98.5692 197.1615 0349224 266.9016  89.2119 13.53103305220129
NOAA 15                 
1 25338U 98030A   21123.53141552  .00000069  00000-0  47395-4 0  9993
2 25338  98.6861 152.4496 0011299  56.1163 304.1091 14.26026354194843
TECHSAT 1B (GO-32)      
1 25397U 98043D   21123.56803888  .00000004  00000-0  21198-4 0  9994
2 25397  98.7677  69.2513 0001090 157.9389 202.1837 14.23707013185106
ISS (ZARYA)             
1 25544U 98067A   21123.72408025 -.00005625  00000-0 -94080-4 0  9992
2 25544  51.6419 202.6530 0002799 312.5290 192.1837 15.48979381281709
ORSTED                  
1 25635U 99008B   21123.60083002  .00000124  00000-0  36750-4 0  9997
2 25635  96.4719  78.6665 0140006  49.3525 311.9748 14.48285033170959
PHASE 3D (AO-40)        
1 26609U 00072B   21123.53432175 -.00000484  00000-0  00000-0 0  9998
2 26609   9.1854 330.4357 7947825 250.3385  15.4273  1.25587005 94025
PCSAT (NO-44)           
1 26931U 01043C   21123.50490441 -.00000025  00000-0  22222-4 0  9997
2 26931  67.0532  36.4395 0006989 263.4203  96.6103 14.30616496 22805
SAUDISAT 1C (SO-50)     
1 27607U 02058C   21123.43965185  .00000050  00000-0  27569-4 0  9995
2 27607  64.5537 115.9921 0035564  37.5123 322.8450 14.75741165987904
CUTE-1 (CO-55)          
1 27844U 03031E   21123.45362294  .00000069  00000-0  50901-4 0  9990
2 27844  98.6815 132.3474 0009357 202.5705 157.5062 14.22305219925587
CUBESAT XI-IV (CO-57)   
1 27848U 03031J   21123.50379608  .00000050  00000-0  42457-4 0  9994
2 27848  98.6871 132.9633 0008988 216.4193 143.6374 14.21882593925429
MOZHAYETS 4 (RS-22)     
1 27939U 03042A   21123.56939601  .00000122  00000-0  30562-4 0  9992
2 27939  98.1338 260.9956 0014112  65.0347 295.2323 14.66975466940941
INMARSAT 4-F1           
1 28628U 05009A   21123.51157181 -.00000275  00000-0  00000-0 0  9993
2 28628   3.3449  30.5974 0003367  28.0486 130.6311  1.00271144 58914
NOAA 18                 
1 28654U 05018A   21123.53965128  .00000093  00000-0  74446-4 0  9998
2 28654  98.9969 188.2190 0014990  52.4775 307.7756 14.12602757822102
CUBESAT XI-V            
1 28895U 05043F   21123.31426774  .00000193  00000-0  45924-4 0  9998
2 28895  98.0516 257.5563 0016501 357.5606   2.5514 14.63902057827406
METOP-A                 
1 29499U 06044A   21123.58061237 -.00000003  00000-0  17754-4 0  9990
2 29499  98.4766 164.6319 0001764  84.3811  69.7578 14.21497382754186
CARTOSAT-2 (IRS-P7)     
1 29710U 07001B   21123.49193157  .00003929  00000-0  12113-3 0  9999
2 29710  97.8746 203.8095 0172422  43.3384 318.1262 15.20932270773812
FALCONSAT-3             
1 30776U 07006E   21123.45517469  .00005144  00000-0  12516-3 0  9998
2 30776  35.4354  29.3408 0003333 237.5831 122.4575 15.40396756786166
CAPE-1                  
1 31130U 07012P   21122.92381035  .00000191  00000-0  50654-4 0  9992
2 31130  98.2309  62.5889 0096826 124.9538 236.0802 14.56669340745317
CARTOSAT-2A             
1 32783U 08021A   21123.61231167  .00000300  00000-0  47760-4 0  9991
2 32783  97.8756 183.7990 0013975  57.8923 302.3639 14.78707783702459
CUTE-1.7+APD II (CO-65) 
1 32785U 08021C   21123.36641448  .00000367  00000-0  44848-4 0  9999
2 32785  97.6084 103.9681 0013733 146.8741 213.3339 14.88698011705469
COMPASS-1               
1 32787U 08021E   21123.45726451  .00001048  00000-0  10305-3 0  9996
2 32787  97.5283 116.2480 0013996  81.4279 278.8527 14.94078226706818
AAUSAT-II               
1 32788U 08021F   21123.26076755  .00001131  00000-0  10686-3 0  9996
2 32788  97.5042 119.8173 0013203  65.6935 294.5664 14.95527196707100
DELFI-C3 (DO-64)        
1 32789U 08021G   21123.52005988  .00002085  00000-0  13623-3 0  9999
2 32789  97.3802 160.6132 0010124 301.1915  58.8321 15.08833322710052
SEEDS II (CO-66)        
1 32791U 08021J   21123.40995417  .00000396  00000-0  44978-4 0  9995
2 32791  97.5692 109.9660 0014697 113.4941 246.7825 14.91370546706066
YUBILEINY (RS-30)       
1 32953U 08025A   21123.47928363  .00000028  00000-0  12906-3 0  9999
2 32953  82.5014  78.8967 0020750  75.0588 285.2785 12.43101517587390
FENGYUN 3A              
1 32958U 08026A   21123.48845441  .00000019  00000-0  29106-4 0  9992
2 32958  98.4471  99.2837 0009662 125.0075 235.2010 14.18654838670096
PRISM (HITOMI)          
1 33493U 09002B   21123.29672740  .00001377  00000-0  12311-3 0  9998
2 33493  98.1849  83.6745 0016499  78.3550 281.9521 14.97596494667569
STARS (KUKAI)           
1 33498U 09002G   21123.48593392  .00000279  00000-0  44842-4 0  9994
2 33498  98.2200   2.5736 0011881 126.2439 233.9871 14.79332353660813
KKS-1 (KISEKI)          
1 33499U 09002H   21123.58325865  .00000129  00000-0  26803-4 0  9995
2 33499  98.2752 352.5421 0008999 176.1002 184.0278 14.75648573659793
NOAA 19                 
1 33591U 09005A   21123.49850953  .00000052  00000-0  53397-4 0  9995
2 33591  99.1868 143.0836 0012940 257.4880 102.4844 14.12464350630315
SWISSCUBE               
1 35932U 09051B   21123.49635528  .00000172  00000-0  49768-4 0  9996
2 35932  98.6060 322.0971 0006703 218.7560 141.3156 14.56522735616411
BEESAT-1                
1 35933U 09051C   21123.53247475  .00000144  00000-0  43249-4 0  9999
2 35933  98.6028 323.9671 0004728 231.4658 128.6115 14.56582161616498
ITUPSAT1                
1 35935U 09051E   21123.50990305  .00000121  00000-0  38825-4 0  9994
2 35935  98.6131 324.0909 0007030 234.9209 125.1328 14.55716026616261
XIWANG-1 (HOPE-1)       
1 36122U 09072B   21123.45906631 -.00000063  00000-0 -54043-4 0  9996
2 36122 100.1286 105.9966 0007253 200.7231 159.3590 13.16359942546978
CARTOSAT-2B             
1 36795U 10035A   21123.44508523  .00000087  00000-0  18840-4 0  9999
2 36795  97.8732 183.0445 0014906 124.4240 235.8382 14.78690171583472
TISAT 1                 
1 36799U 10035E   21123.50932638  .00000357  00000-0  41615-4 0  9994
2 36799  98.2072 312.5062 0012266   7.8766 352.2642 14.91700149586632
FENGYUN 3B              
1 37214U 10059A   21123.51954153  .00000000  00000-0  23231-4 0  9999
2 37214  99.0785 116.7512 0018105  81.2543 279.0681 14.15984699542974
JUGNU                   
1 37839U 11058B   21123.38700163  .00000320  00000-0  28508-4 0  9994
2 37839  19.9599 142.5103 0018757 316.1772  70.4593 14.12712496494085
SRMSAT                  
1 37841U 11058D   21123.59130692  .00000329  00000-0  35718-4 0  9994
2 37841  19.9711 212.2265 0011813 160.2194 331.7643 14.10693683493329
M-CUBED & EXP-1 PRIME   
1 37855U 11061F   21123.29300310  .00001193  00000-0  64986-4 0  9995
2 37855 101.7152  23.2873 0167153 204.9806 154.3251 15.07522353519373
HORYU-2                 
1 38340U 12025D   21123.13282024  .00000272  00000-0  47250-4 0  9992
2 38340  98.2354 189.6407 0012878 100.1286 260.1376 14.76024537471703
METOP-B                 
1 38771U 12049A   21123.63265521 -.00000003  00000-0  18526-4 0  9991
2 38771  98.7185 184.2682 0002176 120.1039  34.4328 14.21476081447518
SARAL                   
1 39086U 13009A   21123.53373901 -.00000001  00000-0  15980-4 0  9998
2 39086  98.5465 310.2560 0001836  65.4751 294.6623 14.32050591427812
AAUSAT 3                
1 39087U 13009B   21123.50325972  .00000174  00000-0  74769-4 0  9991
2 39087  98.4276 327.8083 0013416  50.9804 309.2574 14.35925417428743
STRAND-1                
1 39090U 13009E   21123.50806458  .00000017  00000-0  20897-4 0  9997
2 39090  98.4317 326.7644 0010205  56.6222 303.5939 14.35173935428612
BRITE-AUSTRIA           
1 39091U 13009F   21123.56293243  .00000011  00000-0  18968-4 0  9996
2 39091  98.4319 325.9480 0011590  62.0938 298.1419 14.35184987428630
UNIBRITE                
1 39092U 13009G   21123.40834232  .00000026  00000-0  24078-4 0  9994
2 39092  98.4347 325.4977 0010437  58.2201 302.0000 14.35055990428572
SOMP                    
1 39134U 13015E   21123.51584661  .00002195  00000-0  10329-3 0  9990
2 39134  64.8637 318.5848 0005122 281.1146  78.9406 15.22419440444374
BEESAT-3                
1 39135U 13015F   21123.55256292  .00001636  00000-0  86600-4 0  9996
2 39135  64.8670 346.9196 0002596 193.8118 166.2939 15.19249333443811
BEESAT-2                
1 39136U 13015G   21123.53151254  .00001283  00000-0  70885-4 0  9993
2 39136  64.8761 353.1957 0027166 249.2701 110.5514 15.18620397443679
NEE-01 PEGASO           
1 39151U 13018B   21123.54351523  .00000243  00000-0  38713-4 0  9994
2 39151  97.9754 226.2705 0017987 140.2583 219.9950 14.80333061433038
CUBEBUG-1 (CAPITAN BETO)
1 39153U 13018D   21123.51107621  .00000288  00000-0  44102-4 0  9999
2 39153  97.9899 229.3671 0017925 135.9476 224.3168 14.80912022433154
